CUTE-1 (CO-55)          
1 27844U 03031E   23333.50176576  .00000819  00000+0  38292-3 0  9997
2 27844  98.6789 338.3708 0009975  13.1789 346.9648 14.22979742 59242
CUBESAT XI-IV (CO-57)   
1 27848U 03031J   23332.86776155  .00000647  00000+0  30970-3 0  9992
2 27848  98.6822 338.0937 0010167  29.9332 330.2425 14.22461407 58915
CUBESAT XI-V            
1 28895U 05043F   23333.31104527  .00003587  00000+0  65552-3 0  9999
2 28895  98.1759 104.4173 0015003 271.8200  88.1285 14.66473796965007
CUTE-1.7+APD II (CO-65) 
1 32785U 08021C   23333.53166479  .00008419  00000+0  79302-3 0  9996
2 32785  97.7301 296.3227 0009639 276.7033  83.3090 14.94040950845499
AAUSAT-II               
1 32788U 08021F   23333.46778457  .00019021  00000+0  12163-2 0  9998
2 32788  97.5785 309.8563 0008477 131.8337 228.3617 15.08623942847982
SEEDS II (CO-66)        
1 32791U 08021J   23333.47320830  .00011961  00000+0  97863-3 0  9997
2 32791  97.6795 301.7080 0008755 201.2971 158.7889 14.99452788846486
SWISSCUBE               
1 35932U 09051B   23333.58676467  .00002794  00000+0  61498-3 0  9992
2 35932  98.4948 207.6923 0006549 210.1461 149.9361 14.58267615753311
BEESAT-1                
1 35933U 09051C   23333.63108474  .00002406  00000+0  53283-3 0  9990
2 35933  98.4877 208.8892 0004667 222.2911 137.7928 14.58106819753473
ITUPSAT1                
1 35935U 09051E   23333.64362594  .00002270  00000+0  51424-3 0  9992
2 35935  98.4975 208.7822 0006844 231.0171 129.0418 14.57119308753082
TISAT 1                 
1 36799U 10035E   23333.61194970  .00011851  00000+0  99033-3 0  9996
2 36799  98.1097 209.7299 0011927 136.3239 223.8928 14.98626472726980
M-CUBED & EXP-1 PRIME   
1 37855U 11061F   23333.14188500  .00053013  00000+0  12000-2 0  9994
2 37855 101.6973  29.5834 0094663 251.1624 107.9321 15.38287819661814
AEROCUBE 4.5A           
1 38767U 12048K   23333.15236318  .00013908  00000+0  89036-3 0  9998
2 38767  64.6630 237.2547 0104158  94.3460 266.9568 15.04370528230173
AEROCUBE 4.5B           
1 38768U 12048L   23333.61473788  .00023206  00000+0  11701-2 0  9999
2 38768  64.6609 173.1044 0082917  84.4556 276.6016 15.14132343230969
STRAND-1                
1 39090U 13009E   23333.52463439  .00000794  00000+0  28881-3 0  9993
2 39090  98.3806 162.3443 0009733 127.1731 233.0345 14.35793170563446
BRITE-AUSTRIA           
1 39091U 13009F   23333.53957801  .00000595  00000+0  22092-3 0  9993
2 39091  98.3840 161.6098 0011165 134.0391 226.1717 14.35617238563473
BEESAT-3                
1 39135U 13015F   23333.79295983  .00380549  00000+0  20795-2 0  9990
2 39135  64.8425 131.2523 0010140 269.1874  90.8120 15.78504466588111
BEESAT-2                
1 39136U 13015G   23333.80397603  .00179723  00000+0  17841-2 0  9993
2 39136  64.8563 147.8727 0018857 258.5281 101.3751 15.64744079587816
NEE-01 PEGASO           
1 39151U 13018B   23333.79781863  .00005888  00000+0  71257-3 0  9998
2 39151  98.0226  84.4989 0015128 337.1011  22.9526 14.83976990572245
ESTCUBE 1               
1 39161U 13021C   23333.77839886  .00004129  00000+0  61813-3 0  9994
2 39161  97.8553  41.2780 0009810 150.5856 209.5907 14.75169563567578
POPACS 1                
1 39268U 13055D   23333.46946241  .00037797  00000+0  76183-3 0  9992
2 39268  80.9886  18.9353 0462864  11.1801 349.9268 14.78028131530756
POPACS 2                
1 39269U 13055E   23332.75638050  .00029931  00000+0  73998-3 0  9992
2 39269  81.0062  96.6960 0584235 213.6949 142.5804 14.48429374527571
POPACS 3                
1 39270U 13055F   23333.49434293  .00010531  00000+0  30117-3 0  9991
2 39270  81.0089 140.4622 0648348 336.8179  20.4913 14.31805826504194
ZACUBE-1 (TSHEPISOSAT)  
1 39417U 13066B   23333.44014319  .00006832  00000+0  75475-3 0  9999
2 39417  97.7093 289.6723 0055085 102.8085 257.9294 14.86614577541732
WNISAT-1                
1 39423U 13066H   23333.54423595  .00002528  00000+0  49734-3 0  9994
2 39423  97.6797 179.0653 0170284 279.0055  79.1906 14.54603530531472
TRITON-1                
1 39427U 13066M   23333.74198031  .00007630  00000+0  11126-2 0  9996
2 39427  97.8399 253.4867 0106322   7.5933 352.6854 14.72241769536895
DELFI-N3XT              
1 39428U 13066N   23333.38517097  .00011960  00000+0  16335-2 0  9992
2 39428  97.8369 252.5728 0107695  18.6535 341.8574 14.74745590536469
GOMX-1                  
1 39430U 13066Q   23333.64875986  .00003885  00000+0  66464-3 0  9994
2 39430  97.7563 215.0316 0143254 168.8719 191.5710 14.62808644533711
CUBEBUG-2 (LO-74)       
1 39440U 13066AA  23333.39332220  .00005864  00000+0  73032-3 0  9994
2 39440  97.7924 277.0532 0072008 208.3341 151.3948 14.81010992538590
NEE-02 KRYSAOR          
1 39441U 13066AB  23333.81576498  .00004424  00000+0  58411-3 0  9994
2 39441  97.8029 273.9585 0075215 226.0598 133.4392 14.78560785539473
FUNCUBE-1 (AO-73)       
1 39444U 13066AE  23333.32873496  .00008117  00000+0  85133-3 0  9995
2 39444  97.6950 292.2962 0053153  87.0646 273.6653 14.88730133540191
UWE-3                   
1 39446U 13066AG  23333.83159144  .00006189  00000+0  72912-3 0  9998
2 39446  97.7577 283.5660 0064035 155.3898 205.0395 14.83652802539568
BRITE-CA1 (TORONTO)     
1 40020U 14033L   23333.35185816  .00001841  00000+0  30858-3 0  9998
2 40020  97.8492 113.0582 0084735  14.1080 346.2464 14.68569961505383
DUCHIFAT-1              
1 40021U 14033M   23333.45002362  .00014905  00000+0  11558-2 0  9994
2 40021  98.0754 303.2497 0015822  64.2393 296.0461 15.01397259513958
NANOSATC-BR1            
1 40024U 14033Q   23332.86734940  .00011252  00000+0  93789-3 0  9994
2 40024  98.0517 292.6012 0012177  88.8548 271.4068 14.98736011513055
QB50P1                  
1 40025U 14033R   23333.40158569  .00009412  00000+0  84040-3 0  9998
2 40025  98.0172 283.4995 0012496 103.5025 256.7588 14.96101971512826
QB50P2                  
1 40032U 14033Y   23333.82259181  .00009071  00000+0  82981-3 0  9997
2 40032  97.9856 276.8410 0012102  99.8778 260.3808 14.95165031513222
PERSEUS-M2              
1 40037U 14033AD  23333.34236944  .00003784  00000+0  40504-3 0  9991
2 40037  97.9160 258.7705 0014882 132.9162 227.3307 14.89240384511924
PERSEUS-M1              
1 40039U 14033AF  23333.60106598  .00004433  00000+0  47679-3 0  9995
2 40039  97.8989 255.6283 0014583 131.0877 229.1602 14.88947443511828
POLYITAN-1              
1 40042U 14033AJ  23333.41248255  .00012134  00000+0  10398-2 0  9999
2 40042  98.0286 285.9369 0014358  95.7301 264.5557 14.97616177512745
TIGRISAT                
1 40043U 14033AK  23333.42693032  .00004668  00000+0  64580-3 0  9994
2 40043  97.6739 140.3264 0055731 236.2566 123.3328 14.77435697507800
AEROCUBE 6A             
1 40045U 14033AM  23333.45185876  .00009326  00000+0  11948-2 0  9996
2 40045  97.6572 150.4751 0052097 218.4570 141.2925 14.80537130508069
AEROCUBE 6B             
1 40046U 14033AN  23333.46601406  .00008264  00000+0  10405-2 0  9997
2 40046  97.6528 149.0416 0050834 214.6430 145.1469 14.81344915508102
UKUBE-1                 
1 40074U 14037F   23333.74223648  .00009802  00000+0  10119-2 0  9992
2 40074  98.3385 247.0379 0004853  28.3674 331.7806 14.90388116508894
BRITE-PL2 (HEWELIUSZ)   
1 40119U 14049B   23333.50946669  .00003531  00000+0  39467-3 0  9995
2 40119  97.8843  69.3742 0015301 307.6098  52.3728 14.87507299502736
GRIFEX                  
1 40379U 15003D   23333.66216036  .00153078  00000+0  15085-2 0  9990
2 40379  99.0853 313.0804 0053389  55.7117 304.9174 15.63628597489014
CP10 (EXOCUBE)          
1 40380U 15003E   23333.42209128  .00056594  00000+0  10689-2 0  9990
2 40380  99.0963 298.9581 0078606  97.4226 263.5958 15.44851487488119
EXACTVIEW 9             
1 40936U 15052G   23333.73360034  .00004783  00000+0  53941-3 0  9991
2 40936   6.0042 343.2510 0009394 120.8213 239.2840 14.79428855441848
AEROCUBE 5C             
1 40965U 15058B   23333.19983667  .00008711  00000+0  88707-3 0  9995
2 40965  64.7726 257.5571 0173494  12.6152 347.9212 14.80688017227265
AEROCUBE 7              
1 40966U 15058C   23333.22419689  .00010692  00000+0  10587-2 0  9999
2 40966  64.7709 252.7974 0170221  12.2860 348.2317 14.81968727227303
GALASSIA                
1 41170U 15077E   23333.32328671  .00466473  00000+0  22411-2 0  9990
2 41170  14.9846  28.6676 0001567 115.4695 244.5797 15.80090697441767
VELOX-II                
1 41171U 15077F   23332.83241014  .00049475  00000+0  12656-2 0  9990
2 41171  14.9890 174.0985 0005255  16.8915 343.1584 15.37497100440483
HORYU-4                 
1 41340U 16012D   23332.99733772  .00014030  00000+0  81077-3 0  9995
2 41340  31.0017 201.0028 0010350  93.9054 266.2768 15.11063296427642
E-ST@R-II               
1 41459U 16025D   23333.66424735  .00080930  00000+0  15174-2 0  9997
2 41459  98.1589 193.2202 0076357 237.3118 122.0749 15.45151088418306
RAVAN                   
1 41849U 16067B   23333.45845730  .00014051  00000+0  88982-3 0  9994
2 41849  98.0512 135.3530 0014922 354.0098   6.0949 15.09001528385667
CELTEE 1                
1 41850U 16067C   23333.37694136  .00008324  00000+0  61359-3 0  9994
2 41850  98.0830 128.3024 0001536 111.3307 248.8081 15.03585834385222
OPTICUBE 04             
1 41851U 16067D   23333.40095716  .00004046  00000+0  32203-3 0  9991
2 41851  98.0511 125.5871 0014190  15.8425 344.3239 15.00924206385108
AEROCUBE 8D             
1 41852U 16067E   23333.42441611  .00009260  00000+0  66929-3 0  9998
2 41852  98.0872 127.6797 0006883  66.0073 294.1871 15.04277895385187
AEROCUBE 8C             
1 41853U 16067F   23333.42828345  .00009322  00000+0  67523-3 0  9992
2 41853  98.0680 126.7827 0008845   4.1066 356.0229 15.04182316385171
PROMETHEUS 2-1          
1 41854U 16067G   23333.44989622  .00017114  00000+0  10597-2 0  9997
2 41854  98.0847 131.4162 0015630  21.5070 338.6811 15.09766760385382
